STARLINK-35766          
1 67181U 25303U   25351.60835648 -.00002699  85337-5  00000+0 0  9999
2 67181  43.0100  69.0834 0011500 323.6500   9.4800 16.01284782    10
STARLINK-35782          
1 67182U 25303V   25351.60835648 -.00002699  85337-5  00000+0 0  9990
2 67182  43.0100  69.0834 0011500 323.6500   9.4800 16.01284782    11
STARLINK-35719          
1 67183U 25303W   25351.60835648 -.00002699  85337-5  00000+0 0  9991
2 67183  43.0100  69.0834 0011500 323.6500   9.4800 16.01284782    12
STARLINK-35910          
1 67184U 25303X   25351.60835648 -.00002699  85337-5  00000+0 0  9992
2 67184  43.0100  69.0834 0011500 323.6500   9.4800 16.01284782    13
STARLINK-35859          
1 67185U 25303Y   25351.60835648 -.00002699  85337-5  00000+0 0  9993
2 67185  43.0100  69.0834 0011500 323.6500   9.4800 16.01284782    14
STARLINK-35857          
1 67186U 25303Z   25351.60835648 -.00002699  85337-5  00000+0 0  9994
2 67186  43.0100  69.0834 0011500 323.6500   9.4800 16.01284782    15
STARLINK-35880          
1 67187U 25303AA  25351.60835648 -.00002699  85337-5  00000+0 0  9995
2 67187  43.0100  69.0834 0011500 323.6500   9.4800 16.01284782    16
STARLINK-35675          
1 67188U 25303AB  25351.60835648 -.00002699  85337-5  00000+0 0  9996
2 67188  43.0100  69.0834 0011500 323.6500   9.4800 16.01284782    17
STARLINK-35889          
1 67189U 25303AC  25351.60835648 -.00002699  85337-5  00000+0 0  9997
2 67189  43.0100  69.0834 0011500 323.6500   9.4800 16.01284782    18
STARLINK-35888          
1 67190U 25303AD  25351.60835648 -.00002699  85337-5  00000+0 0  9999
2 67190  43.0100  69.0834 0011500 323.6500   9.4800 16.01284782    10
STARLINK-35716          
1 67191U 25303AE  25351.60835648 -.00002699  85337-5  00000+0 0  9990
2 67191  43.0100  69.0834 0011500 323.6500   9.4800 16.01284782    11
STARLINK-36182          
1 67192U 25304A   26002.95091613 -.00366321  00000+0 -43704-2 0  9995
2 67192  69.9990 347.5829 0005828 256.9378 103.1164 15.61976351  3823
